{
  "norad_id": 62570,
  "name": "STARLINK-32764",
  "history": [
    {
      "epoch": "2026-03-28T16:28:37.568352",
      "apogee_km": 483.2640453305439,
      "perigee_km": 482.6575242863664,
      "latitude_deg": -31.710798193131595,
      "longitude_deg": 142.90840928000398,
      "semi_major_axis_km": 6861.097784808455,
      "eccentricity": 4.42e-05,
      "inclination_deg": 43.0009,
      "raan_deg": 185.6623,
      "arg_perigee_deg": 241.7587,
      "mean_anomaly_deg": 118.322,
      "mean_motion_rev_day": 15.27609493
    }
  ]
}